STARLINK-32331          
1 61623U 24191C   26068.93606948  .00000615  00000+0  31885-4 0  9992
2 61623  42.9982 156.6184 0000883 290.7319  69.3438 15.27571830 77539
AL MUNTHER              
1 63240U 25052AG  26068.64540749  .00017933  00000+0  65015-3 0  9992
2 63240  97.4001 323.9152 0008027 130.7043 229.4895 15.28381521 54798
